NORAD_CAT_ID,OBJECT_NAME,OBJECT_TYPE,EPOCH,MEAN_MOTION,ECCENTRICITY,INCLINATION,RA_OF_ASC_NODE,ARG_OF_PERICENTER,MEAN_ANOMALY,BSTAR,MEAN_MOTION_DOT,MEAN_MOTION_DDOT,TLE_LINE0,TLE_LINE1,TLE_LINE2,SEMIMAJOR_AXIS,PERIOD,APOGEE,PERIGEE,DECAYED
56472.0,STARLINK-5038,PAYLOAD,2023-06-07 13:25:33,15.69931393,0.0003719,69.9984,167.0451,263.2259,96.8514,3.4794e-05,3.974e-05,0.0,0 STARLINK-5038,1 56472U 23064AA  23158.55942125  .00003974  00000-0  34794-4 0  9995,2 56472  69.9984 167.0451 0003719 263.2259  96.8514 15.69931393  4392,6737.23,91.724,361.601,356.59,0.0
56472.0,STARLINK-5038,PAYLOAD,2023-06-07 18:00:49,15.69934517,0.0003775,69.9983,166.5076,263.1806,96.896,4.5174e-05,5.225e-05,0.0,0 STARLINK-5038,1 56472U 23064AA  23158.75056971  .00005225  00000-0  45174-4 0  9997,2 56472  69.9983 166.5076 0003775 263.1806  96.8960 15.69934517  4775,6737.221,91.724,361.63,356.543,0.0
56472.0,STARLINK-5038,PAYLOAD,2023-06-08 01:39:35,15.69930242,0.0003118,69.9995,165.6107,263.0111,97.073,2.6356e-05,2.958e-05,0.0,0 STARLINK-5038,1 56472U 23064AA  23159.06915623  .00002958  00000-0  26356-4 0  9991,2 56472  69.9995 165.6107 0003118 263.0111  97.0730 15.69930242  4827,6737.234,91.724,361.199,356.998,0.0
56472.0,STARLINK-5038,PAYLOAD,2023-06-08 10:50:05,15.69924417,0.0003314,69.9994,164.5365,262.5433,97.5386,9.4246e-06,9.21e-06,0.0,0 STARLINK-5038,1 56472U 23064AA  23159.45145787  .00000921  00000-0  94246-5 0  9992,2 56472  69.9994 164.5365 0003314 262.5433  97.5386 15.69924417  4536,6737.25,91.724,361.348,356.883,0.0
56472.0,STARLINK-5038,PAYLOAD,2023-06-09 09:46:22,15.69924648,0.0003554,69.9981,161.8492,265.6476,94.4313,1.5858e-05,1.694e-05,0.0,0 STARLINK-5038,1 56472U 23064AA  23160.40720861  .00001694  00000-0  15858-4 0  9990,2 56472  69.9981 161.8492 0003554 265.6476  94.4313 15.69924648  4688,6737.25,91.724,361.509,356.72,0.0
56472.0,STARLINK-5038,PAYLOAD,2023-06-09 17:25:08,15.69923427,0.000354,69.9976,160.9543,265.0515,95.0276,-2.005e-06,-4.54e-06,0.0,0 STARLINK-5038,1 56472U 23064AA  23160.72579333 -.00000454  00000-0 -20050-5 0  9997,2 56472  69.9976 160.9543 0003540 265.0515  95.0276 15.69923427  5086,6737.253,91.724,361.503,356.733,0.0
56472.0,STARLINK-5038,PAYLOAD,2023-06-10 11:46:09,15.69932877,0.0003484,69.9976,158.8023,267.3565,92.7232,2.4386e-05,2.721e-05,0.0,0 STARLINK-5038,1 56472U 23064AA  23161.49038907  .00002721  00000-0  24386-4 0  9991,2 56472  69.9976 158.8023 0003484 267.3565  92.7232 15.69932877  4851,6737.226,91.724,361.438,356.744,0.0
56472.0,STARLINK-5038,PAYLOAD,2023-06-11 01:31:56,15.6992264,0.0003349,69.9984,157.1927,267.7197,92.3615,1.1684e-05,1.192e-05,0.0,0 STARLINK-5038,1 56472U 23064AA  23162.06384533  .00001192  00000-0  11684-4 0  9992,2 56472  69.9984 157.1927 0003349 267.7197  92.3615 15.69922640  5297,6737.255,91.724,361.377,356.864,0.0
56472.0,STARLINK-5038,PAYLOAD,2023-06-11 12:14:12,15.69923859,0.0003355,69.9985,155.9382,267.2036,92.8776,1.2389e-05,1.277e-05,0.0,0 STARLINK-5038,1 56472U 23064AA  23162.50986239  .00001277  00000-0  12389-4 0  9999,2 56472  69.9985 155.9382 0003355 267.2036  92.8776 15.69923859  5019,6737.252,91.724,361.377,356.856,0.0
56472.0,STARLINK-5038,PAYLOAD,2023-06-11 16:49:28,15.69913808,0.0002902,69.9972,155.3992,270.1279,89.9584,4.8275e-05,5.593e-05,0.0,0 STARLINK-5038,1 56472U 23064AA  23162.70102062  .00005593  00000-0  48275-4 0  9993,2 56472  69.9972 155.3992 0002902 270.1279  89.9584 15.69913808  5393,6737.281,91.725,361.101,357.19,0.0
56472.0,STARLINK-5038,PAYLOAD,2023-06-12 01:59:58,15.69924324,0.0003633,69.9977,154.3226,267.277,92.801,2.5426e-05,2.846e-05,0.0,0 STARLINK-5038,1 56472U 23064AA  23163.08331233  .00002846  00000-0  25426-4 0  9990,2 56472  69.9977 154.3226 0003633 267.2770  92.8010 15.69924324  5103,6737.251,91.724,361.563,356.668,0.0
56472.0,STARLINK-5038,PAYLOAD,2023-06-12 08:06:58,15.69933554,0.0003267,69.9976,153.6057,265.9501,94.1322,2.1479e-05,2.372e-05,0.0,0 STARLINK-5038,1 56472U 23064AA  23163.33817490  .00002372  00000-0  21479-4 0  9990,2 56472  69.9976 153.6057 0003267 265.9501  94.1322 15.69933554  5494,6737.224,91.724,361.29,356.888,0.0
56472.0,STARLINK-5038,PAYLOAD,2023-06-12 09:38:43,15.69929957,0.0003198,69.9975,153.4264,267.4614,92.6215,1.6245e-05,1.741e-05,0.0,0 STARLINK-5038,1 56472U 23064AA  23163.40189382  .00001741  00000-0  16245-4 0  9994,2 56472  69.9975 153.4264 0003198 267.4614  92.6215 15.69929957  5155,6737.234,91.724,361.254,356.945,0.0
56472.0,STARLINK-5038,PAYLOAD,2023-06-13 05:31:30,15.69932171,0.0003051,69.9979,151.0981,260.5285,99.5566,2.171e-05,2.399e-05,0.0,0 STARLINK-5038,1 56472U 23064AA  23164.23021029  .00002399  00000-0  21710-4 0  9992,2 56472  69.9979 151.0981 0003051 260.5285  99.5566 15.69932171  5635,6737.228,91.724,361.149,357.038,0.0
56472.0,STARLINK-5038,PAYLOAD,2023-06-13 07:03:16,15.69914213,0.0002712,69.9999,150.9227,261.8141,98.2747,-9.2376e-06,-1.322e-05,0.0,0 STARLINK-5038,1 56472U 23064AA  23164.29393686 -.00001322  00000-0 -92376-5 0  9993,2 56472  69.9999 150.9227 0002712 261.8141  98.2747 15.69914213  5292,6737.279,91.725,360.972,357.317,0.0
56472.0,STARLINK-5038,PAYLOAD,2023-06-13 22:20:46,15.6992718,0.0003051,69.9993,149.1297,264.4059,95.6789,1.5042e-05,1.597e-05,0.0,0 STARLINK-5038,1 56472U 23064AA  23164.93109756  .00001597  00000-0  15042-4 0  9993,2 56472  69.9993 149.1297 0003051 264.4059  95.6789 15.69927180  5741,6737.242,91.724,361.163,357.052,0.0
56472.0,STARLINK-5038,PAYLOAD,2023-06-14 10:34:48,15.69911082,0.0003004,70.0004,147.6987,268.9005,91.1847,-2.5043e-05,-3.221e-05,0.0,0 STARLINK-5038,1 56472U 23064AA  23165.44083743 -.00003221  00000-0 -25043-4 0  9997,2 56472  70.0004 147.6987 0003004 268.9005  91.1847 15.69911082  5474,6737.288,91.725,361.177,357.13,0.0
56472.0,STARLINK-5038,PAYLOAD,2023-06-14 22:48:49,15.69923182,0.0003291,70.0003,146.2659,266.4087,93.6732,1.4124e-05,1.486e-05,0.0,0 STARLINK-5038,1 56472U 23064AA  23165.95056741  .00001486  00000-0  14124-4 0  9998,2 56472  70.0003 146.2659 0003291 266.4087  93.6732 15.69923182  5907,6737.254,91.724,361.336,356.902,0.0
56472.0,STARLINK-5038,PAYLOAD,2023-06-15 07:59:20,15.69910675,0.0002411,69.9996,145.1904,283.2542,76.8385,-1.3901e-05,-1.882e-05,0.0,0 STARLINK-5038,1 56472U 23064AA  23166.33287616 -.00001882  00000-0 -13901-4 0  9992,2 56472  69.9996 145.1904 0002411 283.2542  76.8385 15.69910675  5968,6737.29,91.725,360.779,357.53,0.0
56472.0,STARLINK-5038,PAYLOAD,2023-06-15 11:02:51,15.69906321,0.0002682,69.9988,144.8316,272.2518,87.837,4.9711e-05,5.764e-05,0.0,0 STARLINK-5038,1 56472U 23064AA  23166.46031354  .00005764  00000-0  49711-4 0  9991,2 56472  69.9988 144.8316 0002682 272.2518  87.8370 15.69906321  5636,6737.302,91.725,360.974,357.36,0.0
56472.0,STARLINK-5038,PAYLOAD,2023-06-15 15:38:05,15.69928155,0.0003319,69.9989,144.2935,266.8161,93.2655,2.3812e-05,2.652e-05,0.0,0 STARLINK-5038,1 56472U 23064AA  23166.65144905  .00002652  00000-0  23812-4 0  9996,2 56472  69.9989 144.2935 0003319 266.8161  93.2655 15.69928155  6018,6737.24,91.724,361.341,356.868,0.0
56472.0,STARLINK-5038,PAYLOAD,2023-06-16 08:27:21,15.69919357,0.0003008,69.9992,142.3236,266.7383,93.3468,-9.0239e-06,-1.297e-05,0.0,0 STARLINK-5038,1 56472U 23064AA  23167.35233418 -.00001297  00000-0 -90239-5 0  9996,2 56472  69.9992 142.3236 0003008 266.7383  93.3468 15.69919357  6124,6737.265,91.724,361.156,357.103,0.0
56472.0,STARLINK-5038,PAYLOAD,2023-06-16 09:59:06,15.69923522,0.0002774,69.9989,142.1426,280.715,79.3733,6.0433e-06,5.14e-06,0.0,0 STARLINK-5038,1 56472U 23064AA  23167.41605157  .00000514  00000-0  60433-5 0  9998,2 56472  69.9989 142.1426 0002774 280.7150  79.3733 15.69923522  5785,6737.253,91.724,360.987,357.249,0.0
56472.0,STARLINK-5038,PAYLOAD,2023-06-16 16:06:07,15.69927776,0.000326,69.9975,141.4279,268.48,91.6022,1.7989e-05,1.951e-05,0.0,0 STARLINK-5038,1 56472U 23064AA  23167.67091451  .00001951  00000-0  17989-4 0  9995,2 56472  69.9975 141.4279 0003260 268.4800  91.6022 15.69927776  6171,6737.241,91.724,361.302,356.909,0.0
56472.0,STARLINK-5038,PAYLOAD,2023-06-17 05:51:53,15.69914602,0.0003296,69.9984,139.8138,260.8693,99.213,-1.7143e-05,-2.273e-05,0.0,0 STARLINK-5038,1 56472U 23064AA  23168.24437049 -.00002273  00000-0 -17143-4 0  9998,2 56472  69.9984 139.8138 0003296 260.8693  99.2130 15.69914602  6269,6737.278,91.725,361.364,356.923,0.0
56472.0,STARLINK-5038,PAYLOAD,2023-06-17 10:27:08,15.69919043,0.0003355,69.9987,139.2783,262.4704,97.6111,3.5773e-06,2.17e-06,0.0,0 STARLINK-5038,1 56472U 23064AA  23168.43552040  .00000217  00000-0  35773-5 0  9992,2 56472  69.9987 139.2783 0003355 262.4704  97.6111 15.69919043  5948,6737.266,91.724,361.391,356.87,0.0
56472.0,STARLINK-5038,PAYLOAD,2023-06-17 15:02:24,15.69926142,0.0003417,69.9982,138.7404,263.9285,96.1522,3.0691e-05,3.479e-05,0.0,0 STARLINK-5038,1 56472U 23064AA  23168.62666930  .00003479  00000-0  30691-4 0  9993,2 56472  69.9982 138.7404 0003417 263.9285  96.1522 15.69926142  6327,6737.245,91.724,361.412,356.808,0.0
56472.0,STARLINK-5038,PAYLOAD,2023-06-17 21:09:24,15.69932542,0.0003422,69.9986,138.0234,262.0086,98.0721,8.0625e-05,9.496e-05,0.0,0 STARLINK-5038,1 56472U 23064AA  23168.88153580  .00009496  00000-0  80625-4 0  9990,2 56472  69.9986 138.0234 0003422 262.0086  98.0721 15.69932542  6019,6737.227,91.724,361.397,356.787,0.0
56472.0,STARLINK-5038,PAYLOAD,2023-06-18 04:48:10,15.69936904,0.0003529,69.9993,137.1276,261.6054,98.4742,0.0001094,0.00012969,0.0,0 STARLINK-5038,1 56472U 23064AA  23169.20011938  .00012969  00000-0  10940-3 0  9998,2 56472  69.9993 137.1276 0003529 261.6054  98.4742 15.69936904  6069,6737.215,91.723,361.457,356.702,0.0
56472.0,STARLINK-5038,PAYLOAD,2023-06-18 07:51:40,15.69925658,0.0003262,69.9998,136.7687,266.7197,93.3626,4.4066e-05,5.089e-05,0.0,0 STARLINK-5038,1 56472U 23064AA  23169.32755566  .00005089  00000-0  44066-4 0  9995,2 56472  69.9998 136.7687 0003262 266.7197  93.3626 15.69925658  6433,6737.247,91.724,361.309,356.914,0.0
